Address,City,State,ZIP,Restaurant Name,Latitude,Longitude,Formatted Address
416 Wishkah Street,Aberdeen,WA,98520,Dutch Bros. Coffee,46.97741460016591,-123.808426,"Dutch Bros. Coffee, East Wishkah Street, Aberdeen, WA 98537, United States of America"
416 Wishkah Street,Aberdeen,WA,98520,Starbucks,46.97760340016585,-123.80295736682662,"Starbucks, 1202 East Wishkah Street, Aberdeen, WA 98520, United States of America"
9384 Old Highway 99 North,Burlington,WA,98233,The Coffee Barn,48.50709999981443,-122.33773299999999,"The Coffee Barn, 9552 Old Highway 99 North Road, Burlington, WA 98233, United States of America"
9384 Old Highway 99 North,Burlington,WA,98233,Foxy Lady Latte,48.506707999814516,-122.33761447201834,"Foxy Lady Latte, 9566 Old Highway 99 North Road, Burlington, WA 98233, United States of America"
1200 Lum Rd,Centralia,WA,98531,Starbucks,46.728547400215334,-122.98122190000001,"Starbucks, Harrison Avenue, Centralia, WA 98531, United States of America"
1200 Lum Rd,Centralia,WA,98531,Dutch Bros. Coffee,46.72316890021635,-122.96988619999999,"Dutch Bros. Coffee, East Bridge Street, Centralia, WA, United States of America"
1620 Canyon Rd,Ellensburg,WA,98926,Starbucks,46.97695260016597,-120.54220539999999,"Starbucks, 1614 Canyon Road, Ellensburg, WA 98926, United States of America"
1620 Canyon Rd,Ellensburg,WA,98926,D&M Coffee,46.97548835016628,-120.5421968476393,"D&M Coffee, 1709 Canyon Road, Ellensburg, WA 98926, United States of America"
2811 West 10th Ave.,Kennewick,WA,99336,Starbucks,46.19780990031074,-119.16135589999999,"Starbucks, 2811 West 10th Avenue, Kennewick, WA 99336, United States of America"
2811 West 10th Ave.,Kennewick,WA,99336,Evergreen Coffee Company,46.198868100310555,-119.1595857,"Evergreen Coffee Company, 2802 West 10th Avenue, Kennewick, WA 99336, United States of America"
2902 164th Street SW,Lynnwood,WA,98087,Starbucks,47.8496265999733,-122.27318159999997,"Starbucks, 2902 164th Street Southwest, Lynnwood, WA 98087, United States of America"
2902 164th Street SW,Lynnwood,WA,98087,Gourmet Latté,47.83531439997664,-122.27042345389872,"Gourmet Latté, Alderwood Mall Parkway, Lynnwood, WA 98037, United States of America"
105 W Galbreath Way,Ritzville,WA,99169,Starbucks,47.117467900136845,-118.36747510000001,"Starbucks, West Galbreath Way, Ritzville, WA 99169, United States of America"
105 W Galbreath Way,Ritzville,WA,99169,Jen's Java Junction,47.118537350136634,-118.36514047402278,"Jen's Java Junction, South Division Street, Ritzville, WA 99169, United States of America"
1441 E Washington Street,Sequim,WA,98382,Red Dog Coffee,48.07543879991963,-123.1026107,"Red Dog Coffee, South Sequim Avenue, Sequim, WA, United States of America"
1441 E Washington Street,Sequim,WA,98382,The White Cup Espresso,48.07943599991869,-123.10747999999997,"The White Cup Espresso, West Washington Street, Sequim, WA, United States of America"
800 NE Tenney Road,Vancouver,WA,98685,Starbucks,45.72015750038366,-122.66274119999997,"Starbucks, 800 Northeast Tenney Road, Vancouver, WA 98685, United States of America"
800 NE Tenney Road,Vancouver,WA,98685,Starbucks,45.722155700383375,-122.66671049999998,"Starbucks, 504 Northeast 139th Street, Salmon Creek, WA 98685, United States of America"
1329 US-2,Leavenworth,WA,98826,Leavenworth's Finest Espresso,47.59768740003157,-120.65812850000002,"Leavenworth's Finest Espresso, 1038 Front Street, Leavenworth, WA 98826, United States of America"
1329 US-2,Leavenworth,WA,98826,Starbucks,47.596532900031825,-120.6600093,"Starbucks, 932 Front Street, Leavenworth, WA 98826, United States of America"
6100 East Lake Sammamish Parkway SE,Issaquah,WA,98029,Starbucks,47.547355600042984,-122.0391274,"Starbucks, 6170 East Lake Sammamish Parkway Southeast, Issaquah, WA 98129, United States of America"
6100 East Lake Sammamish Parkway SE,Issaquah,WA,98029,Mighty Mugs,47.544397300043656,-122.03627920000001,"Mighty Mugs, Southeast 64th Street, Issaquah, WA 98129, United States of America"
37515 SR 706 E,Ashford,WA,98304,Rise & Grind,46.75953480020932,-122.04106000000002,"Rise & Grind, National Park Highway, Ashford, WA 98330, United States of America"
37515 SR 706 E,Ashford,WA,98304,Mountain Goat Coffee Roaster and Bakery,46.606602800238505,-121.6705732,"Mountain Goat Coffee Roaster and Bakery, 105 Main Street East, Packwood, WA, United States of America"
11010 NE 8th St,Bellevue,WA,98004,Starbucks,47.617548900027025,-122.19332279999999,"Starbucks, 11010 Northeast 8th Street, Bellevue, WA 98004, United States of America"
11010 NE 8th St,Bellevue,WA,98004,Story Coffee,47.61783810002698,-122.192197,"Story Coffee, 11011 Northeast 9th Street, Bellevue, WA 98004, United States of America"
200 110th Ave,Bellevue,WA,98004,Fonte Coffee,47.61271950002815,-122.196671,"Fonte Coffee, 108th Avenue Northeast, Bellevue, WA 98009, United States of America"
200 110th Ave,Bellevue,WA,98004,Caffe Ladro,47.613508800027944,-122.1966778,"Caffe Ladro, 333 108th Avenue Northeast, Bellevue, WA 98004, United States of America"
208 106th Pl NE,Bellevue,WA,98004,Fonte Coffee,47.61271950002815,-122.196671,"Fonte Coffee, 108th Avenue Northeast, Bellevue, WA 98009, United States of America"
208 106th Pl NE,Bellevue,WA,98004,Caffe Ladro,47.613508800027944,-122.1966778,"Caffe Ladro, 333 108th Avenue Northeast, Bellevue, WA 98004, United States of America"
300 112th Ave SE,Bellevue,WA,98004,Copper Kettle Coffee Bar,47.60913170002897,-122.17965400000001,"Copper Kettle Coffee Bar, Tateuchi Loop Trail, Bellevue, WA 98009, United States of America"
300 112th Ave SE,Bellevue,WA,98004,Fonte Coffee,47.61271950002815,-122.196671,"Fonte Coffee, 108th Avenue Northeast, Bellevue, WA 98009, United States of America"
1 Bellwether Way,Bellingham,WA,98225,Narrative Coffee,48.75750689975248,-122.49062030000002,"Narrative Coffee, 1400 West Holly Street, Bellingham, WA 98225, United States of America"
1 Bellwether Way,Bellingham,WA,98225,Black Fern Coffee,48.75167019975392,-122.4841904,"Black Fern Coffee, 1211 Granary Avenue, Bellingham, WA 98225, United States of America"
151 McLeod Rd,Bellingham,WA,98226,Starbucks,48.78534729974556,-122.48940099999999,"Starbucks, 1 Bellis Fair Parkway, Bellingham, WA 98226, United States of America"
151 McLeod Rd,Bellingham,WA,98226,Woods Coffee,48.79041999974432,-122.4958709,"Woods Coffee, 428 West Bakerview Road, Bellingham, WA 98226, United States of America"
4051 Meridian St,Bellingham,WA,98226,Starbucks,48.78534729974556,-122.48940099999999,"Starbucks, 1 Bellis Fair Parkway, Bellingham, WA 98226, United States of America"
4051 Meridian St,Bellingham,WA,98226,Cruisin' Coffee,48.79268149974375,-122.49184210225175,"Cruisin' Coffee, Calluna Court, Bellingham, WA 98226, United States of America"
55410 N Sunset Rd,Benton City,WA,99320,Wake Up Call,46.297173650293985,-119.339776245,"Wake Up Call, 4033 West Van Giesen Street, West Richland, WA 99353, United States of America"
55410 N Sunset Rd,Benton City,WA,99320,Wake Up Call,46.25728825030076,-119.32975488668043,"Wake Up Call, 3205 Kennedy Road, West Richland, WA 99353, United States of America"
9565 Semiahmoo Pkwy,Blaine,WA,98230,Starbucks,48.99587029969336,-122.75162240000002,"Starbucks, 530 F Street, Blaine, WA 98230, United States of America"
9565 Semiahmoo Pkwy,Blaine,WA,98230,Blackbird Coffee,48.975896549698305,-122.72813939756739,"Blackbird Coffee, Peace Portal Drive, Blaine, WA 98230, United States of America"
1261 Wind River Rd,Carson,WA,98610,The Cabin,45.69714015038684,-121.87723006506153,"The Cabin, Lutheran Church Road, Stevenson, WA 98648, United States of America"
1261 Wind River Rd,Carson,WA,98610,Gotta Hava Java,45.692142800387536,-121.88688420612857,"Gotta Hava Java, 2nd Street, Stevenson, WA 98648, United States of America"
69 Main St,Cathlamet,WA,98612,Patty Cakes,46.2016523003101,-123.38468179999998,"Patty Cakes, 98 Main Street, Cathlamet, WA 98612, United States of America"
69 Main St,Cathlamet,WA,98612,Julie's Java,46.19817735031068,-123.368763,"Julie's Java, Ocean Beach Highway, Cathlamet, WA 98612, United States of America"
565 S Lakeshore Dr,Chelan,WA,98816,KáVé Roasters,47.846715299973965,-120.02427920000001,"KáVé Roasters, 806 West Manson Highway, Chelan, WA 98816, United States of America"
565 S Lakeshore Dr,Chelan,WA,98816,Starbucks,47.841823299975125,-120.02099864377561,"Starbucks, 216 West Manson Highway, Chelan, WA 98816, United States of America"
3600 Suncadia Trl,Cle Elum,WA,98922,Kodiak Coffee,47.20825820011762,-120.98284224548698,"Kodiak Coffee, Bullfrog Roundabout, Roslyn, WA 98941, United States of America"
22406 Pacific Highway S,Des Moines,WA,98198,Midway Donuts & Gyros,47.39391760007726,-122.29433367499999,"Midway Donuts & Gyros, 23200 Pacific Highway South, Des Moines, WA 98032, United States of America"
22406 Pacific Highway S,Des Moines,WA,98198,Starbucks,47.409810300073744,-122.29921699999998,"Starbucks, 21401 International Boulevard, Des Moines, WA 98198, United States of America"
32124 25th Ave S,Federal Way,WA,98003,Starbucks,47.315458100094475,-122.30703807523327,"Starbucks, 2032 South 320th Street, Federal Way, WA 98003, United States of America"
32124 25th Ave S,Federal Way,WA,98003,Starbucks,47.31474830009463,-122.31641290000002,"Starbucks, 1301 South 320th Street, Federal Way, WA 98003, United States of America"
473 Mora Rd,Forks,WA,98331,Outfitters Grind,47.94140099995163,-124.3866968,"Outfitters Grind, South Forks Avenue, Forks, WA, United States of America"
473 Mora Rd,Forks,WA,98331,Mocha Motion,47.94842704994997,-124.38575974793116,"Mocha Motion, 260 South Forks Avenue, Forks, WA, United States of America"
5511 S Freeland Ave,Freeland,WA,98249,Southern Cross Too,48.01026904993523,-122.51813779999998,"Southern Cross Too, Newman Road, Freeland, WA 98249, United States of America"
5511 S Freeland Ave,Freeland,WA,98249,Mukilteo Coffee,48.01635469993379,-122.43905759999997,"Mukilteo Coffee, 5331 Crawford Road, Island County, WA 98260, United States of America"
5268 Point Fosdick Dr NW,Gig Harbor,WA,98335,Starbucks,47.30441860009687,-122.5800215,"Starbucks, Olympic Drive, Gig Harbor, WA 98335, United States of America"
5268 Point Fosdick Dr NW,Gig Harbor,WA,98335,Cutter's Point Coffee,47.30711350009629,-122.57528799999997,"Cutter's Point Coffee, 5500 Olympic Drive, Gig Harbor, WA 98335, United States of America"
6575 Kimball Dr,Gig Harbor,WA,98335,Starbucks,47.32217410009301,-122.5886418,"Starbucks, Pioneer Way, Gig Harbor, WA 98335, United States of America"
6575 Kimball Dr,Gig Harbor,WA,98335,Drive Thru Coffee,47.32818865009169,-122.58202575644458,"Drive Thru Coffee, Pioneer Way, Gig Harbor, WA 98335, United States of America"
1801 12th Ave NW,Issaquah,WA,98027,Starbucks,47.5459252000433,-122.05959680000001,"Starbucks, 1460 Northwest Gilman Boulevard, Issaquah, WA 98129, United States of America"
1801 12th Ave NW,Issaquah,WA,98027,BigFoot Java,47.54428170004368,-122.04912680000001,"BigFoot Java, Gilman Trail, Issaquah, WA 98129, United States of America"
1106 N Jurupa St,Kennewick,WA,99338,Starbucks,46.22738340030581,-119.26772780000002,"Starbucks, 698 Gage Boulevard, Richland, WA 99352, United States of America"
1106 N Jurupa St,Kennewick,WA,99338,Badger Canyon Coffee Company,46.19721340031084,-119.26475463553709,"Badger Canyon Coffee Company, 12125 West Clearwater Avenue, Kennewick, WA 99338, United States of America"
3715 Plaza Wy,Kennewick,WA,99338,Black Rock Coffee,46.17887960031388,-119.18706116954792,"Black Rock Coffee, 4898 Hildebrand Boulevard, Kennewick, WA 99336, United States of America"
3715 Plaza Wy,Kennewick,WA,99338,Red Rail Espresso,46.184667550312916,-119.17906413043895,"Red Rail Espresso, 4301 West 27th Avenue, Kennewick, WA 99336, United States of America"
201 Cascade Ave,Langley,WA,98260,Commons Café & Books,48.04019494992809,-122.40792544216444,"Commons Café & Books, 2nd Street, Langley, WA 98260, United States of America"
201 Cascade Ave,Langley,WA,98260,Sprinklz,48.040914799927904,-122.4090231,"Sprinklz, 224 1st Street, Langley, WA 98260, United States of America"
400 1st St.,Langley,WA,98260,Ulysses Coffee,48.04034519992804,-122.40957109999998,"Ulysses Coffee, 111 Anthes Avenue, Langley, WA 98260, United States of America"
400 1st St.,Langley,WA,98260,Sprinklz,48.040914799927904,-122.4090231,"Sprinklz, 224 1st Street, Langley, WA 98260, United States of America"
19115 Chiwawa Loop Rd,Leavenworth,WA,98826,Midway Grocery Cafe,47.818644399980556,-120.7089188,"Midway Grocery Cafe, Chiwawa Loop Road, Chelan County, WA, United States of America"
19115 Chiwawa Loop Rd,Leavenworth,WA,98826,Leavenworth's Finest Espresso,47.59768740003157,-120.65812850000002,"Leavenworth's Finest Espresso, 1038 Front Street, Leavenworth, WA 98826, United States of America"
7375 Icicle Rd,Leavenworth,WA,98826,Argonaut Coffee & Biscuits,47.59163070003294,-120.67020003058701,"Argonaut Coffee & Biscuits, 220 US 2, Leavenworth, WA 98826, United States of America"
7375 Icicle Rd,Leavenworth,WA,98826,Argonaut Espresso Bar,47.59398775003241,-120.6649686,"Argonaut Espresso Bar, Front Street, Leavenworth, WA 98826, United States of America"
135 Wapato Wy,Manson,WA,98831,KáVé Roasters,47.846715299973965,-120.02427920000001,"KáVé Roasters, 806 West Manson Highway, Chelan, WA 98816, United States of America"
135 Wapato Wy,Manson,WA,98831,Starbucks,47.841823299975125,-120.02099864377561,"Starbucks, 216 West Manson Highway, Chelan, WA 98816, United States of America"
300 Ivan Morse Rd,Manson,WA,98831,KáVé Roasters,47.846715299973965,-120.02427920000001,"KáVé Roasters, 806 West Manson Highway, Chelan, WA 98816, United States of America"
300 Ivan Morse Rd,Manson,WA,98831,Starbucks,47.841823299975125,-120.02099864377561,"Starbucks, 216 West Manson Highway, Chelan, WA 98816, United States of America"
4849 Pacific Ave,Moclips,WA,98562,Surf Shop Espresso,47.20857900011754,-124.2031946,"Surf Shop Espresso, 1st Street South, Moclips, WA 98571, United States of America"
4849 Pacific Ave,Moclips,WA,98562,Vista Bakeshop,47.195254900120396,-124.1980204,"Vista Bakeshop, 202 Meriweather Street, Seabrook, WA 98571, United States of America"
2380 S Maiers Rd,Moses Lake,WA,98837,Starbucks,47.101535700140204,-119.24722114265109,"Starbucks, Kittleson Road Northeast, Moses Lake, WA 98837, United States of America"
2380 S Maiers Rd,Moses Lake,WA,98837,Espresso De Cafe,47.11612570013715,-119.26294525,"Espresso De Cafe, East Nelson Road, Moses Lake, WA 98837, United States of America"
186 Skyview Dr,Mossyrock,WA,98564,Lemon Tree Cafe & Espresso,46.529144600252835,-122.4848031,"Lemon Tree Cafe & Espresso, 122 East State Street, Mossyrock, WA 98564, United States of America"
186 Skyview Dr,Mossyrock,WA,98564,Pony Espresso 2,46.54695745024958,-122.872913353049,"Pony Espresso 2, US 12, Lewis County, WA 98565, United States of America"
2726 Makah Passage,Neah Bay,WA,98357,NW Coffee Bros,47.95231699994903,-124.38562249999998,"NW Coffee Bros, Sol Duc Way, Forks, WA, United States of America"
2726 Makah Passage,Neah Bay,WA,98357,A Shot In The Dark,47.95189609994911,-124.38512089999998,"A Shot In The Dark, North Forks Avenue, Forks, WA, United States of America"
3346 Makah Passage,Neah Bay,WA,98357,NW Coffee Bros,47.95231699994903,-124.38562249999998,"NW Coffee Bros, Sol Duc Way, Forks, WA, United States of America"
3346 Makah Passage,Neah Bay,WA,98357,A Shot In The Dark,47.95189609994911,-124.38512089999998,"A Shot In The Dark, North Forks Avenue, Forks, WA, United States of America"
1431 11th Ave SE,Olympia,WA,98501,Drip Coffee Bar,47.0390973001532,-122.9005094,"Drip Coffee Bar, 1018 Capitol Way Southeast, Olympia, WA 98504, United States of America"
1431 11th Ave SE,Olympia,WA,98501,Dancing Goats,47.04335360015233,-122.90125999999998,"Dancing Goats, 550 Legion Way Southeast, Olympia, WA 98501, United States of America"
2300 Evergreen Park Dr SW,Olympia,WA,98502,Starbucks,47.0192541001573,-122.89823120000001,"Starbucks, 520 Cleveland Avenue Southeast, Tumwater, WA 98501, United States of America"
2300 Evergreen Park Dr SW,Olympia,WA,98502,Drip Coffee Bar,47.0390973001532,-122.9005094,"Drip Coffee Bar, 1018 Capitol Way Southeast, Olympia, WA 98504, United States of America"
299 Eastlake Rd,Oroville,WA,98844,Tim Hortons,49.0324242996843,-119.470027,"Tim Hortons, Main Street, Osoyoos, BC V0H 1V0, Canada"
299 Eastlake Rd,Oroville,WA,98844,Tim Hortons,49.171247799650004,-119.55580345097218,"Tim Hortons, Main Street, Oliver, BC V0H 1T0, Canada"
2525 North 20th Ave,Pasco,WA,99301,Wake Up Call,46.25104240030183,-119.11645444889572,"Wake Up Call, 2525 20th Avenue, Pasco, WA 99301, United States of America"
2525 North 20th Ave,Pasco,WA,99301,Starbucks,46.24182905030338,-119.12417267420955,"Starbucks, West Court Street, Pasco, WA 99301, United States of America"
334 Benson Rd,Port Angeles,WA,98363,The Coffee Cottage,48.10441509991267,-123.48926760445286,"The Coffee Cottage, US 101, Port Angeles, WA, United States of America"
334 Benson Rd,Port Angeles,WA,98363,Cedar Box Coffee Shop,48.10246549991314,-123.51456864999997,"Cedar Box Coffee Shop, South Dry Creek Road, Clallam County, WA, United States of America"
339 Finn Hall Rd,Port Angeles,WA,98362,Higher Grounds Espresso,48.10865559991164,-123.3638675164342,"Higher Grounds Espresso, North Oakridge Drive, Mount Pleasant, WA 98362, United States of America"
339 Finn Hall Rd,Port Angeles,WA,98362,Gabby's Java & Gourmet Grub,48.08862704991647,-123.1724068,"Gabby's Java & Gourmet Grub, Business Park Loop, Carlsborg, WA 98324, United States of America"
939 Finn Hall Rd,Port Angeles,WA,98362,Gabby's Java & Gourmet Grub,48.08862704991647,-123.1724068,"Gabby's Java & Gourmet Grub, Business Park Loop, Carlsborg, WA 98324, United States of America"
939 Finn Hall Rd,Port Angeles,WA,98362,Higher Grounds Espresso,48.10865559991164,-123.3638675164342,"Higher Grounds Espresso, North Oakridge Drive, Mount Pleasant, WA 98362, United States of America"
1190 SE Bishop Blvd,Pullman,WA,99163,Starbucks,46.71420775021809,-117.17729111797809,"Starbucks, 490 Southeast Brelsford Drive, Pullman, WA 99163, United States of America"
1190 SE Bishop Blvd,Pullman,WA,99163,Starbucks,46.72802550021542,-117.16586499999997,"Starbucks, 1270 Southeast Washington Street, Pullman, WA 99164, United States of America"
1515 S Meridian,Puyallup,WA,98371,Frog Hopper  Coffee,47.17961660012371,-122.29884029999997,"Frog Hopper  Coffee, 110 9th Avenue Southwest, Puyallup, WA 98372, United States of America"
1515 S Meridian,Puyallup,WA,98371,Starbucks,47.18418295012276,-122.2933139565625,"Starbucks, 909 South Meridian, Puyallup, WA 98371, United States of America"
344 Silica Rd NW,Quincy,WA,98848,Iron Horse Coffee,47.08069830014456,-119.86327339999998,"Iron Horse Coffee, South Frontage Road West, Grant County, WA 98824, United States of America"
344 Silica Rd NW,Quincy,WA,98848,Espresso,47.08233960014421,-119.86115469999997,"Espresso, South Frontage Road West, Grant County, WA 98824, United States of America"
7401 164th Ave NE,Redmond,WA,98052,Kitanda Espresso & Açaí,47.67061070001488,-122.1219969,"Kitanda Espresso & Açaí, 16349 Northeast 74th Street, Redmond, WA 98052, United States of America"
7401 164th Ave NE,Redmond,WA,98052,Starbucks,47.67061070001488,-122.12004359999999,"Starbucks, 16500 Northeast 74th Street, Redmond, WA 98052, United States of America"
1060 George Washington Wy,Richland,WA,99352,Milieu Coffeeworks LLC,46.278817500297116,-119.2714063,"Milieu Coffeeworks, 10 Newton Street, Richland, WA 99352, United States of America"
1060 George Washington Wy,Richland,WA,99352,Novel Coffee + Teas,46.27529880029772,-119.27331289999998,"Novel Coffee + Teas, 710 George Washington Way, Richland, WA 99352, United States of America"
486 Bradley Blvd,Richland,WA,99352,Wake Up Call,46.271694550298335,-119.27144855526254,"Wake Up Call, 496 George Washington Way, Richland, WA 99354, United States of America"
486 Bradley Blvd,Richland,WA,99352,Novel Coffee + Teas,46.27529880029772,-119.27331289999998,"Novel Coffee + Teas, 710 George Washington Way, Richland, WA 99352, United States of America"
100 Stewart St,Seattle,WA,98101,Top Pot Doughnuts,47.610312000028706,-122.34103299999998,"Top Pot Doughnuts, 101 Stewart Street, Seattle, WA 98101, United States of America"
100 Stewart St,Seattle,WA,98101,Seattle Coffee Works,47.61008650002876,-122.3406212,"Seattle Coffee Works, 106 Pine Street, Seattle, WA 98101, United States of America"
1000 1st Ave,Seattle,WA,98104,Storyville Coffee,47.60474330002995,-122.33653980000001,"Storyville Coffee, 1001 1st Avenue, Seattle, WA 98104, United States of America"
1000 1st Ave,Seattle,WA,98104,Starbucks,47.605388400029824,-122.33501539999997,"Starbucks, 1000 2nd Avenue, Seattle, WA 98104, United States of America"
1415 5th Ave,Seattle,WA,98101,Starbucks,47.61039330002869,-122.33471949999998,"Starbucks, 1420 5th Avenue, Seattle, WA 98101, United States of America"
1415 5th Ave,Seattle,WA,98101,Starbucks,47.610456900028645,-122.33562559999999,"Starbucks, 425 Pike Street, Seattle, WA 98101, United States of America"
1531 7th Ave,Seattle,WA,98101,Starbucks,47.612318400028244,-122.33372349999998,"Starbucks, 1524 7th Avenue, Seattle, WA 98101, United States of America"
1531 7th Ave,Seattle,WA,98101,Il Fornaio Cafe,47.612780100028125,-122.3352348,"Il Fornaio Cafe, 600 Pine Street, Seattle, WA 98101, United States of America"
18525 36th Ave S,Seattle,WA,98188,Starbucks,47.43561520006803,-122.2941474,"Starbucks, 18740 International Boulevard, Seattle, WA 98188, United States of America"
18525 36th Ave S,Seattle,WA,98188,Caffé D'arte,47.440085100067016,-122.29770000000002,"Caffé D'arte, Air Cargo Road, SeaTac, WA 98158, United States of America"
2100 Alaskan Way,Seattle,WA,98121,Anchorhead Coffee Co,47.61091760002854,-122.34459099999998,"Anchorhead Coffee Co, 2003 Western Avenue, Seattle, WA 98121, United States of America"
2100 Alaskan Way,Seattle,WA,98121,Starbucks,47.613983900027854,-122.3472235,"Starbucks, 2326 1st Avenue, Seattle, WA 98121, United States of America"
324 NE 45th St,Seattle,WA,98105,Kitanda,47.66116870001704,-122.31582010000001,"Kitanda, 1121 Northeast 45th Street, Seattle, WA 98105, United States of America"
324 NE 45th St,Seattle,WA,98105,Jake's Coffee,47.66322590001658,-122.31565680000001,"Jake's Coffee, 1116 Northeast 47th Street, Seattle, WA 98105, United States of America"
400 Fairview Ave N,Seattle,WA,98109,Caffe Ladro,47.622359500025944,-122.33407809999999,"Caffe Ladro, 400 Fairview Avenue North, Seattle, WA 98109, United States of America"
400 Fairview Ave N,Seattle,WA,98109,Cherry Street Coffee House,47.62327370002572,-122.33405239999998,"Cherry Street Coffee House, 500 Fairview Avenue North, Seattle, WA 98109, United States of America"
411 University St,Seattle,WA,98101,4th Avenue Bites & Delights,47.607879300029246,-122.33427280000001,"4th Avenue Bites & Delights, 1206 4th Avenue, Seattle, WA 98101, United States of America"
411 University St,Seattle,WA,98101,Caffe Migliore,47.60777900002927,-122.33474999999997,"Caffe Migliore, 1215 4th Avenue, Seattle, WA 98161, United States of America"
4501 12th Ave NE,Seattle,WA,98105,Kitanda,47.66116870001704,-122.31582010000001,"Kitanda, 1121 Northeast 45th Street, Seattle, WA 98105, United States of America"
4501 12th Ave NE,Seattle,WA,98105,Poindexter,47.661430500017,-122.3144657,"Poindexter, 4507 Brooklyn Avenue Northeast, Seattle, WA 98105, United States of America"
500 5th Ave N,Seattle,WA,98109,Caffe Vita,47.62675830002492,-122.347723,"Caffe Vita, 813 5th Avenue North, Seattle, WA 98109, United States of America"
500 5th Ave N,Seattle,WA,98109,Seattle Grind,47.62233500002595,-122.34701969999998,"Seattle Grind, 516 Harrison Street, Seattle, WA 98109, United States of America"
601 Roy St,Seattle,WA,98109,Caffe Vita,47.62675830002492,-122.347723,"Caffe Vita, 813 5th Avenue North, Seattle, WA 98109, United States of America"
601 Roy St,Seattle,WA,98109,Seattle Grind,47.62233500002595,-122.34701969999998,"Seattle Grind, 516 Harrison Street, Seattle, WA 98109, United States of America"
620 Stewart St,Seattle,WA,98101,Starbucks,47.61430000002778,-122.33588600000002,"Starbucks, 1700 7th Avenue, Seattle, WA 98101, United States of America"
620 Stewart St,Seattle,WA,98101,Starbucks,47.613889000027875,-122.336968,"Starbucks, 600 Stewart Street, Seattle, WA 98101, United States of America"
907 14th Ave E,Seattle,WA,98112,Victrola Coffee Roasters,47.62235170002595,-122.31282899999997,"Victrola Coffee Roasters, 411 15th Avenue East, Seattle, WA 98112, United States of America"
907 14th Ave E,Seattle,WA,98112,Espresso Vivace - Brix,47.623766200025614,-122.3206383,"Espresso Vivace - Brix, 532 Broadway East, Seattle, WA 98102, United States of America"
99 Union St,Seattle,WA,98101,Caffe Ladro,47.6080742000292,-122.33887580000001,"Caffe Ladro, 108 Union Street, Seattle, WA 98101, United States of America"
99 Union St,Seattle,WA,98101,Starbucks,47.60826440002916,-122.3386109,"Starbucks, 1415 2nd Avenue, Seattle, WA 98101, United States of America"
4415 Pacific Way,Seaview,WA,98644,Capt Beans Coffee,46.34354785028597,-124.05425974943826,"Capt Beans Coffee, 1308 Pacific Avenue South, Long Beach, WA 98631, United States of America"
4415 Pacific Way,Seaview,WA,98644,The Ebb,46.30822700029209,-124.04226739999999,"The Ebb, 122 Lake Street Southeast, Ilwaco, WA 98624, United States of America"
303 Sunny View Dr,Sequim,WA,98382,Gabby's Java & Gourmet Grub,48.08862704991647,-123.1724068,"Gabby's Java & Gourmet Grub, Business Park Loop, Carlsborg, WA 98324, United States of America"
303 Sunny View Dr,Sequim,WA,98382,Starbucks,48.077930499919034,-123.12986126665297,"Starbucks, West Washington Street, Sequim, WA 98324, United States of America"
630 Marine Dr,Sequim,WA,98382,Gabby's Java & Gourmet Grub,48.08862704991647,-123.1724068,"Gabby's Java & Gourmet Grub, Business Park Loop, Carlsborg, WA 98324, United States of America"
630 Marine Dr,Sequim,WA,98382,Cracked Bean,48.094417599915076,-123.10264754888695,"Cracked Bean, 10191 Old Olympic Highway, Sequim, WA 98382, United States of America"
37500 SE N Bend Wy,Snoqualmie,WA,98065,The Bindlestick,47.52867850004719,-121.82512010000002,"The Bindlestick, 8010 Railroad Avenue Southeast, Snoqualmie, WA 98065, United States of America"
37500 SE N Bend Wy,Snoqualmie,WA,98065,Dark Horse Brew,47.529663100046974,-121.82568740000002,"Dark Horse Brew, Railroad Avenue Southeast, Snoqualmie, WA 98065, United States of America"
10 S Post St,Spokane,WA,99201,Brews Bros. Espresso,47.657327200017946,-117.4233281,"Brews Bros. Espresso, West Sprague Avenue, Spokane, WA 99201, United States of America"
10 S Post St,Spokane,WA,99201,Starbucks,47.65885270001758,-117.4231541,"Starbucks, 721 West Main Avenue, Spokane, WA 99201, United States of America"
111 Post St,Spokane,WA,99201,Brews Bros. Espresso,47.657327200017946,-117.4233281,"Brews Bros. Espresso, West Sprague Avenue, Spokane, WA 99201, United States of America"
111 Post St,Spokane,WA,99201,Starbucks,47.65885270001758,-117.4231541,"Starbucks, 721 West Main Avenue, Spokane, WA 99201, United States of America"
115 W North River Dr,Spokane,WA,99201,Sleeves & Straws Coffee Co.,47.66782710001553,-117.41158465,"Sleeves & Straws Coffee Co., West Boone Avenue, Spokane, WA 99258, United States of America"
115 W North River Dr,Spokane,WA,99201,Dutch Bros. Coffee,47.669807150015075,-117.41085065,"Dutch Bros. Coffee, East Sharp Avenue, Spokane, WA 99258, United States of America"
2010 S Assembly Rd,Spokane,WA,99224,Hartland Coffee,47.622520700025916,-117.50523317510988,"Hartland Coffee, South Geiger Boulevard, Spokane, WA 99224, United States of America"
2010 S Assembly Rd,Spokane,WA,99224,Cannon Coffee & Cone,47.65242170001906,-117.44140399735713,"Cannon Coffee & Cone, West 4th Avenue, Spokane, WA 99201, United States of America"
322 N Spokane Falls Ct,Spokane,WA,99201,Mad's Brew,47.655382100018386,-117.41163198248191,"Mad's Brew, West Pacific Avenue, Spokane, WA 99258, United States of America"
322 N Spokane Falls Ct,Spokane,WA,99201,Starbucks,47.65885270001758,-117.4231541,"Starbucks, 721 West Main Avenue, Spokane, WA 99201, United States of America"
333 W Spokane Falls Blvd,Spokane,WA,99201,Starbucks,47.65885270001758,-117.4231541,"Starbucks, 721 West Main Avenue, Spokane, WA 99201, United States of America"
333 W Spokane Falls Blvd,Spokane,WA,99201,Brews Bros. Espresso,47.657327200017946,-117.4233281,"Brews Bros. Espresso, West Sprague Avenue, Spokane, WA 99201, United States of America"
808 W Sprague Ave,Spokane,WA,99201,Brews Bros. Espresso,47.657327200017946,-117.4233281,"Brews Bros. Espresso, West Sprague Avenue, Spokane, WA 99201, United States of America"
808 W Sprague Ave,Spokane,WA,99201,Starbucks,47.65885270001758,-117.4231541,"Starbucks, 721 West Main Avenue, Spokane, WA 99201, United States of America"
9015 W Hwy 2,Spokane,WA,99224,Dutch Bros. Coffee,47.64273200002127,-117.55096866309624,"Dutch Bros. Coffee, 10109 West Sunset Highway, Airway Heights, WA 99001, United States of America"
9015 W Hwy 2,Spokane,WA,99224,Starbucks,47.643870300021035,-117.55624810000002,"Starbucks, West Sunset Highway, Airway Heights, WA 99001, United States of America"
1131 Skamania Lodge Way,Stevenson,WA,98648,Gotta Hava Java,45.692142800387536,-121.88688420612857,"Gotta Hava Java, 2nd Street, Stevenson, WA 98648, United States of America"
1131 Skamania Lodge Way,Stevenson,WA,98648,Thirsty Coffee Bar,45.66504200039124,-121.8956942,"Thirsty Coffee Bar, Wa-Na-Pa Street, Cascade Locks, OR 98648, United States of America"
2611 East E St,Tacoma,WA,98421,Anthem Coffee and Tea,47.245330550109664,-122.43637770316347,"Anthem Coffee and Tea, Chihuly Bridge of Glass, Tacoma, WA 98418, United States of America"
2611 East E St,Tacoma,WA,98421,Starbucks,47.24552900010961,-122.43710200000001,"Starbucks, 1748 Pacific Avenue, Tacoma, WA 98402, United States of America"
10 E Alderbrook Dr,Union,WA,98592,BigFoot Java,47.23093680011276,-123.12270151612447,"BigFoot Java, East Wallace Kneeland Boulevard, Shelton, WA 98555, United States of America"
10 E Alderbrook Dr,Union,WA,98592,Starbucks,47.22960000011304,-123.12665485,"Starbucks, 3001 Olympic Highway North, Shelton, WA 98584, United States of America"
7801 NE Greenwood Dr,Vancouver,WA,98662,Starbucks,45.65473395039263,-122.58867367938197,"Starbucks, Northeast Thurston Way, Vancouver, WA 98662, United States of America"
7801 NE Greenwood Dr,Vancouver,WA,98662,Starbucks,45.65813760039217,-122.58469560000002,"Starbucks, 8700 Northeast Vancouver Mall Drive, Vancouver, WA 98662, United States of America"
150 E Boeing,Walla Walla,WA,99362,Starbucks,46.066996200331985,-118.338089,"Starbucks, 28 East Main Street, Walla Walla, WA 99362, United States of America"
150 E Boeing,Walla Walla,WA,99362,Coffee Cravings,46.060493100333005,-118.34836958571988,"Coffee Cravings, South 10th Avenue, Walla Walla, WA 99362, United States of America"
1704 J.B. George Rd,Walla Walla,WA,99362,Chateau Espresso,47.733946900000284,-122.14260859999997,"Chateau Espresso, 148th Avenue Northeast, Woodinville, WA 98072, United States of America"
1704 J.B. George Rd,Walla Walla,WA,99362,Bobae Coffee and Tea,47.75340589999575,-122.15205500000002,"Bobae Coffee and Tea, 14015 Northeast Woodinville Duvall Road, Woodinville, WA 98072, United States of America"
2014 Mill Creek Rd,Walla Walla,WA,99362,Starbucks,46.066996200331985,-118.338089,"Starbucks, 28 East Main Street, Walla Walla, WA 99362, United States of America"
2014 Mill Creek Rd,Walla Walla,WA,99362,Coffee Cravings,46.060493100333005,-118.34836958571988,"Coffee Cravings, South 10th Avenue, Walla Walla, WA 99362, United States of America"
3796 Peppers Bridge Rd,Walla Walla,WA,99362,Starbucks,46.050314000334616,-118.34654170000002,"Starbucks, WA 125, Walla Walla, WA 99324, United States of America"
3796 Peppers Bridge Rd,Walla Walla,WA,99362,Dutch Bros. Coffee,46.056466600333664,-118.34648352142477,"Dutch Bros. Coffee, South 9th Avenue, Walla Walla, WA 99362, United States of America"
6 W Rose St,Walla Walla,WA,99362,Starbucks,46.066996200331985,-118.338089,"Starbucks, 28 East Main Street, Walla Walla, WA 99362, United States of America"
6 W Rose St,Walla Walla,WA,99362,Coffee Cravings,46.060493100333005,-118.34836958571988,"Coffee Cravings, South 10th Avenue, Walla Walla, WA 99362, United States of America"
760 C St,Walla Walla,WA,99362,Starbucks,46.066996200331985,-118.338089,"Starbucks, 28 East Main Street, Walla Walla, WA 99362, United States of America"
760 C St,Walla Walla,WA,99362,Coffee Cravings,46.060493100333005,-118.34836958571988,"Coffee Cravings, South 10th Avenue, Walla Walla, WA 99362, United States of America"
1611 Love Ln,Wenatchee,WA,98801,Java Dog Espresso,47.4711655000601,-120.3361448,"Java Dog Espresso, 209 Easy Street, Wenatchee, WA 98801, United States of America"
1611 Love Ln,Wenatchee,WA,98801,Starbucks,47.453031600064165,-120.33404300000001,"Starbucks, North Wenatchee Avenue, Wenatchee, WA 98801, United States of America"
2858 S Forrest St,Westport,WA,98595,Captain Jack's Espresso,46.90792385017998,-124.11315054146425,"Captain Jack's Espresso, 271 Dock Street, Westport, WA 98595, United States of America"
2858 S Forrest St,Westport,WA,98595,Green Monster Coffee,46.909424000179676,-124.11389999999997,"Green Monster Coffee, Westhaven Drive, Westport, WA 98595, United States of America"
14850 NE 145th St,Woodinville,WA,98072,Chateau Espresso,47.733946900000284,-122.14260859999997,"Chateau Espresso, 148th Avenue Northeast, Woodinville, WA 98072, United States of America"
14850 NE 145th St,Woodinville,WA,98072,Bobae Coffee and Tea,47.75340589999575,-122.15205500000002,"Bobae Coffee and Tea, 14015 Northeast Woodinville Duvall Road, Woodinville, WA 98072, United States of America"
802 E Yakima Ave,Yakima,WA,98901,Starbucks,46.60389020023901,-120.49772299999997,"Starbucks, East Yakima Avenue, Yakima, WA 98901, United States of America"
802 E Yakima Ave,Yakima,WA,98901,Starbucks,46.586181100242314,-120.49801419999999,"Starbucks, East Nob Hill Boulevard, Yakima, WA 98901, United States of America"
18805 US-2,Monroe,WA,98272,XO Espresso,47.860797149970644,-121.97826262614782,"XO Espresso, US 2, Monroe, WA 98272, United States of America"
18805 US-2,Monroe,WA,98272,Starbucks,47.862324599970286,-121.98078390000002,"Starbucks, 18629 US 2, Monroe, WA 98272, United States of America"
700 Artisan Wy,Dayton,WA,99328,Starbucks,46.066996200331985,-118.338089,"Starbucks, 28 East Main Street, Walla Walla, WA 99362, United States of America"
700 Artisan Wy,Dayton,WA,99328,Coffee Cravings,46.060493100333005,-118.34836958571988,"Coffee Cravings, South 10th Avenue, Walla Walla, WA 99362, United States of America"
1325 6th Ave,Seattle,WA,98101,Starbucks,47.61002290002876,-122.33244560000001,"Starbucks, 7th Avenue, Seattle, WA 98191, United States of America"
1325 6th Ave,Seattle,WA,98101,Voxx Coffee,47.60908350002899,-122.3322553,"Voxx Coffee, 1200 6th Avenue, Seattle, WA 98138, United States of America"
223 Andover Park E,Tukwila,WA,98188,Starbucks,47.45523240006366,-122.25231789999998,"Starbucks, Strander Boulevard, Tukwila, WA 98188, United States of America"
223 Andover Park E,Tukwila,WA,98188,Starbucks,47.45560870006357,-122.2565724,"Starbucks, 333 Strander Boulevard, Tukwila, WA 98188, United States of America"
19501 144th Ave NE Suite D500,Woodinville,WA,98072,Starbucks,47.75533379999531,-122.15248949999999,"Starbucks, 140th Avenue Northeast, Woodinville, WA 98072, United States of America"
19501 144th Ave NE Suite D500,Woodinville,WA,98072,Mercury Coffee Company,47.755392699995305,-122.1569602,"Mercury Coffee Company, Northeast 175th Street, Woodinville, WA 98072, United States of America"
601 Union Street,Seattle,WA,98101,Starbucks,47.61002290002876,-122.33244560000001,"Starbucks, 7th Avenue, Seattle, WA 98191, United States of America"
601 Union Street,Seattle,WA,98101,Cortina Café,47.61061430002862,-122.33182859999997,"Cortina Café, 601 Union Street, Seattle, WA 98101, United States of America"
1101 Outlet Collection Way,Auburn,WA,98001,Gravity Coffee Co.,47.29607465009869,-122.25035142065215,"Gravity Coffee Co., 15th Street Southwest, Auburn, WA 98071, United States of America"
1101 Outlet Collection Way,Auburn,WA,98001,Starbucks,47.296101700098674,-122.24554410000002,"Starbucks, 15th Street Southwest, Auburn, WA 98071, United States of America"
46600 SE North Bend Way,North Bend,WA,98045,Starbucks,47.46829320006074,-121.71678200000001,"Starbucks, 46600 Southeast North Bend Way, North Bend, WA 98045, United States of America"
46600 SE North Bend Way,North Bend,WA,98045,The Daily Grind,47.48424710005719,-121.76363972493294,"The Daily Grind, 43030 Southeast Mount Si Road, Tanner, WA 98045, United States of America"
818 N Sunrise Blvd,Camano,WA,98282,Camano Island Coffee Roasters,48.24178149987942,-122.4548552,"Camano Island Coffee Roasters, State Route 532, Island County, WA, United States of America"
818 N Sunrise Blvd,Camano,WA,98282,Camano Island Espresso,48.24170249987945,-122.45683579999998,"Camano Island Espresso, North Sunrise Boulevard, Island County, WA, United States of America"
601 Union St,Seattle,WA,98101,Starbucks,47.61002290002876,-122.33244560000001,"Starbucks, 7th Avenue, Seattle, WA 98191, United States of America"
601 Union St,Seattle,WA,98101,Cortina Café,47.61061430002862,-122.33182859999997,"Cortina Café, 601 Union Street, Seattle, WA 98101, United States of America"
420 Windy Point Dr,Wapato,WA,98951,Lorraine's Espresso,46.447645200267615,-120.43206720000002,"Lorraine's Espresso, West Wapato Road, Wapato, WA, United States of America"
420 Windy Point Dr,Wapato,WA,98951,Moulin Brew,46.56647795024598,-120.48373243884633,"Moulin Brew, South 1st Street, Yakima, WA, United States of America"
3853 Powerline Rd,Walla Walla,WA,99362,Starbucks,46.050314000334616,-118.34654170000002,"Starbucks, WA 125, Walla Walla, WA 99324, United States of America"
3853 Powerline Rd,Walla Walla,WA,99362,Dutch Bros. Coffee,46.056466600333664,-118.34648352142477,"Dutch Bros. Coffee, South 9th Avenue, Walla Walla, WA 99362, United States of America"
419 Commercial Ave,Anacortes,WA,98221,Johnny Picasso's,48.5181346998117,-122.61232499999997,"Johnny Picasso's, 501 Commercial Avenue, Anacortes, WA 98221, United States of America"
419 Commercial Ave,Anacortes,WA,98221,Whidbey Coffee,48.51286444981301,-122.61281579999999,"Whidbey Coffee, 1120 Commercial Avenue, Anacortes, WA 98221, United States of America"
345 Boyer Ave,Walla Walla,WA,99362,Starbucks,46.066996200331985,-118.338089,"Starbucks, 28 East Main Street, Walla Walla, WA 99362, United States of America"
345 Boyer Ave,Walla Walla,WA,99362,Coffee Cravings,46.060493100333005,-118.34836958571988,"Coffee Cravings, South 10th Avenue, Walla Walla, WA 99362, United States of America"
28 Roland Ct,Walla Walla,WA,99362,Starbucks,46.050314000334616,-118.34654170000002,"Starbucks, WA 125, Walla Walla, WA 99324, United States of America"
28 Roland Ct,Walla Walla,WA,99362,Dutch Bros. Coffee,46.056466600333664,-118.34648352142477,"Dutch Bros. Coffee, South 9th Avenue, Walla Walla, WA 99362, United States of America"
10506 West Aero Road,Spokane,WA,99224,Starbucks,47.59061000003317,-117.561352,"Starbucks, 10506 West Aero Road, Spokane County, WA 99224, United States of America"
2709 West Broadway Avenue,Moses Lake,WA,98837,Simply Devine Espresso,47.127420200134765,-119.28679545330965,"Simply Devine Espresso, West Broadway Avenue, Moses Lake, WA 98837, United States of America"
2709 West Broadway Avenue,Moses Lake,WA,98837,Espresso De Cafe,47.11612570013715,-119.26294525,"Espresso De Cafe, East Nelson Road, Moses Lake, WA 98837, United States of America"
8115 Birch Bay Square,Blaine,WA,98230,Woods Coffee,48.93728359970787,-122.66782655,"Woods Coffee, 8130 Birch Bay Square Street, Blaine, WA 98230, United States of America"
8115 Birch Bay Square,Blaine,WA,98230,Steamers Espresso,48.97407824969875,-122.72805557857586,"Steamers Espresso, Bell Road, Blaine, WA 98230, United States of America"
2430 93rd Avenue Southwest,Tumwater,WA,98512,Stews Brews,46.95312200017084,-122.9709311,"Stews Brews, 93rd Avenue Southwest, Tumwater, WA 98512, United States of America"
2430 93rd Avenue Southwest,Tumwater,WA,98512,A Hill of Beans Espresso,46.98524685016429,-122.93234396771635,"A Hill of Beans Espresso, 7002 Littlerock Road Southwest, Tumwater, WA 98512, United States of America"
8700 NE Vancouver Mall Drive,Vancouver,WA,98662,Starbucks,45.65813760039217,-122.58469560000002,"Starbucks, 8700 Northeast Vancouver Mall Drive, Vancouver, WA 98662, United States of America"
8700 NE Vancouver Mall Drive,Vancouver,WA,98662,Couve Coffee,45.65797565039219,-122.57677554797158,"Couve Coffee, Northeast Vancouver Mall Drive, Vancouver, WA 98662, United States of America"
100 Fern Hill Road,Forks,WA,98331,Outfitters Grind,47.94140099995163,-124.3866968,"Outfitters Grind, South Forks Avenue, Forks, WA, United States of America"
100 Fern Hill Road,Forks,WA,98331,Mocha Motion,47.94842704994997,-124.38575974793116,"Mocha Motion, 260 South Forks Avenue, Forks, WA, United States of America"
207 Three Rivers Drive,Kelso,WA,98626,Starbucks,46.14272590031982,-122.8991106,"Starbucks, 205 Three Rivers Drive, Kelso, WA 98626, United States of America"
207 Three Rivers Drive,Kelso,WA,98626,Dutch Bros. Coffee,46.14485450031946,-122.89542482884406,"Dutch Bros. Coffee, South Kelso Drive, Kelso, WA 98626, United States of America"
19128 112th Avenue NE,Bothell,WA,98011,Starbucks,47.767048499992576,-122.19128329999997,"Starbucks, 19122 Beardslee Boulevard, Bothell, WA 98011, United States of America"
19128 112th Avenue NE,Bothell,WA,98011,Starbucks,47.7613595999939,-122.1762446,"Starbucks, Northeast 185th Street, Bothell, WA 98011, United States of America"
505 Hwy 2,Leavenworth,WA,98826,Argonaut Coffee & Biscuits,47.59163070003294,-120.67020003058701,"Argonaut Coffee & Biscuits, 220 US 2, Leavenworth, WA 98826, United States of America"
505 Hwy 2,Leavenworth,WA,98826,Argonaut Espresso Bar,47.59398775003241,-120.6649686,"Argonaut Espresso Bar, Front Street, Leavenworth, WA 98826, United States of America"
665 Sleater Kinney Road SE,Lacey,WA,98503,Starbucks,47.04362560015226,-122.83404519999998,"Starbucks, 537 Sleater Kinney Road Southeast, Lacey, WA 98503, United States of America"
665 Sleater Kinney Road SE,Lacey,WA,98503,Fog & Fern Coffee House,47.04316520015236,-122.83039169999999,"Fog & Fern Coffee House, 4219 6th Avenue Southeast, Lacey, WA 98503, United States of America"
7200 164th Ave NE,Redmond,WA,98052,Starbucks,47.68102540001249,-122.12586599999997,"Starbucks, 161st Avenue Northeast, Redmond, WA 98052, United States of America"
7200 164th Ave NE,Redmond,WA,98052,5 Stones Coffee Company,47.67634330001358,-122.1253295,"5 Stones Coffee Company, 8102 161st Avenue Northeast, Redmond, WA 98052, United States of America"
776 Silverstone Dr,Walla Walla,WA,99362,Coffee Cravings,46.060493100333005,-118.34836958571988,"Coffee Cravings, South 10th Avenue, Walla Walla, WA 99362, United States of America"
776 Silverstone Dr,Walla Walla,WA,99362,Dutch Bros. Coffee,46.056466600333664,-118.34648352142477,"Dutch Bros. Coffee, South 9th Avenue, Walla Walla, WA 99362, United States of America"
11616 E Montgomery Dr,Spokane Valley,WA,99206,Wake Up Call,47.66736770001563,-117.23942954430728,"Wake Up Call, North Pines Road, Spokane Valley, WA 99206, United States of America"
3220 100th St SW,Everett,WA,98204,Caffe Vita,47.90867089995938,-122.2785637,"Caffe Vita, 3308 100th Street Southwest, Everett, WA 98204, United States of America"
3220 100th St SW,Everett,WA,98204,BigFoot Java,47.90558079996009,-122.23933215,"BigFoot Java, 401 Southwest Everett Mall Way, Everett, WA 98204, United States of America"
1060 W. Eells Hill Rd,Shelton,WA,98584,Starbucks,47.22960000011304,-123.12665485,"Starbucks, 3001 Olympic Highway North, Shelton, WA 98584, United States of America"
1060 W. Eells Hill Rd,Shelton,WA,98584,BigFoot Java,47.23093680011276,-123.12270151612447,"BigFoot Java, East Wallace Kneeland Boulevard, Shelton, WA 98555, United States of America"
1201 Second Avenue,Seattle,WA,98101,The Shop by Porter,47.606424600029584,-122.3375333,"The Shop by Porter, 1201 2nd Avenue, Seattle, WA 98101, United States of America"
1201 Second Avenue,Seattle,WA,98101,Starbucks Reserve,47.60686590002949,-122.33851699999998,"Starbucks Reserve, 1305 1st Avenue, Seattle, WA 98101, United States of America"
1416 NW Ballard Way,Seattle,WA,98107,Top Pot Doughnuts,47.66277630001667,-122.37387699999995,"Top Pot Doughnuts, 1416 Northwest 46th Street, Seattle, WA 98107, United States of America"
1416 NW Ballard Way,Seattle,WA,98107,Java Jahn,47.663833000016446,-122.37493899999998,"Java Jahn, 1428 Northwest Leary Way, Seattle, WA 98107, United States of America"
14579 US-97 Alt,Entiat,WA,98822,Starbucks,47.841823299975125,-120.02099864377561,"Starbucks, 216 West Manson Highway, Chelan, WA 98816, United States of America"
14579 US-97 Alt,Entiat,WA,98822,KáVé Roasters,47.846715299973965,-120.02427920000001,"KáVé Roasters, 806 West Manson Highway, Chelan, WA 98816, United States of America"
10333 NE 1st Street,Bellevue,WA,98004,Starbucks,47.61047850002865,-122.20067340000001,"Starbucks, Main Street, Bellevue, WA 98009, United States of America"
10333 NE 1st Street,Bellevue,WA,98004,Third Culture Coffee,47.61085690002856,-122.20394090000002,"Third Culture Coffee, 80 102nd Avenue Northeast, Bellevue, WA 98004, United States of America"
401 NE Northgate Way,Seattle,WA,98125,Starbucks,47.70606200000673,-122.3249263,"Starbucks, 10601 5th Avenue Northeast, Seattle, WA 98125, United States of America"
401 NE Northgate Way,Seattle,WA,98125,Starbucks,47.70823140000622,-122.3320965,"Starbucks, 2137 North Northgate Way, Seattle, WA 98133, United States of America"
121 North Fair Avenue,Yakima,WA,98901,Starbucks,46.60389020023901,-120.49772299999997,"Starbucks, East Yakima Avenue, Yakima, WA 98901, United States of America"
121 North Fair Avenue,Yakima,WA,98901,Crave Coffee,46.623742800235284,-120.5122508,"Crave Coffee, North 1st Street, Yakima, WA 98901, United States of America"
32015 Pacific Highway South,Federal Way,WA,98003,Starbucks,47.31474830009463,-122.31641290000002,"Starbucks, 1301 South 320th Street, Federal Way, WA 98003, United States of America"
32015 Pacific Highway South,Federal Way,WA,98003,Starbucks,47.313857100094815,-122.317864,"Starbucks, 1207 South 320th Street, Federal Way, WA 98003, United States of America"
2008  Durry Road,Sprague,WA,99032,Jen's Java Junction,47.118537350136634,-118.36514047402278,"Jen's Java Junction, South Division Street, Ritzville, WA 99169, United States of America"
2008  Durry Road,Sprague,WA,99032,Starbucks,47.117467900136845,-118.36747510000001,"Starbucks, West Galbreath Way, Ritzville, WA 99169, United States of America"
21728 E Mission Ave,Liberty Lake,WA,99019,New Love Coffee,47.67841740001309,-117.11234259999998,"New Love Coffee, East Indiana Avenue, Liberty Lake, WA 99019, United States of America"
21728 E Mission Ave,Liberty Lake,WA,99019,Starbucks,47.67048030001491,-117.10420169999998,"Starbucks, 1342 North Liberty Lake Road, Liberty Lake, WA 99019, United States of America"
1500  Canyon Road,Ellensburg,WA,98926,Starbucks,46.97695260016597,-120.54220539999999,"Starbucks, 1614 Canyon Road, Ellensburg, WA 98926, United States of America"
1500  Canyon Road,Ellensburg,WA,98926,D&M Coffee,46.97548835016628,-120.5421968476393,"D&M Coffee, 1709 Canyon Road, Ellensburg, WA 98926, United States of America"
333 Strander Boulevard,Tukwila,WA,98188,Starbucks,47.45560870006357,-122.2565724,"Starbucks, 333 Strander Boulevard, Tukwila, WA 98188, United States of America"
333 Strander Boulevard,Tukwila,WA,98188,Starbucks,47.45523240006366,-122.25231789999998,"Starbucks, Strander Boulevard, Tukwila, WA 98188, United States of America"
16010  Road 1 Northwest,Quincy,WA,98848,Espresso,47.08233960014421,-119.86115469999997,"Espresso, South Frontage Road West, Grant County, WA 98824, United States of America"
16010  Road 1 Northwest,Quincy,WA,98848,Iron Horse Coffee,47.08069830014456,-119.86327339999998,"Iron Horse Coffee, South Frontage Road West, Grant County, WA 98824, United States of America"
905  20th st,Anacortes,WA,98221,Penguin Coffee,48.504657899815015,-122.61244340000002,"Penguin Coffee, 2119 Commercial Avenue, Anacortes, WA 98221, United States of America"
905  20th st,Anacortes,WA,98221,Strawberry Bay Coffee and Roasting Co.,48.50503309981493,-122.61004460000001,"Strawberry Bay Coffee and Roasting Co., 801 21st Street, Anacortes, WA 98221, United States of America"
2011  West Argent Road,Pasco,WA,99301,Wake Up Call,46.25104240030183,-119.11645444889572,"Wake Up Call, 2525 20th Avenue, Pasco, WA 99301, United States of America"
2011  West Argent Road,Pasco,WA,99301,Blackbird Espresso,46.255978250301,-119.09712915,"Blackbird Espresso, 3202 Swallow Avenue, Pasco, WA 99301, United States of America"
1015  W Pine St,Walla Walla,WA,99362,Coffee Cravings,46.060493100333005,-118.34836958571988,"Coffee Cravings, South 10th Avenue, Walla Walla, WA 99362, United States of America"
1015  W Pine St,Walla Walla,WA,99362,Starbucks,46.066996200331985,-118.338089,"Starbucks, 28 East Main Street, Walla Walla, WA 99362, United States of America"
93 WA-108,Shelton,WA,98584,Redneck Coffee Shack,47.19968760011943,-123.09206470000001,"Redneck Coffee Shack, Arcadia Avenue, Shelton, WA, United States of America"
93 WA-108,Shelton,WA,98584,Steamboat Island Coffee Shop,47.08059590014458,-123.02124669999998,"Steamboat Island Coffee Shop, Sexton Drive Northwest, Schneiders Prairie, WA 98505, United States of America"
6916 NE Fourth Plain Blvd,Vancouver,WA,98661,Black Rock Coffee,45.644153450394064,-122.60124674988373,"Black Rock Coffee, Northeast Andresen Road, Vancouver, WA 98661, United States of America"
6916 NE Fourth Plain Blvd,Vancouver,WA,98661,Cupidone Coffee House,45.64429220039405,-122.59894959999998,"Cupidone Coffee House, Northeast 72nd Drive, Vancouver, WA 98661, United States of America"
700 Northwest Arkansas Way,Chehalis,WA,98532,Dutch Bros. Coffee,46.678565350224915,-122.97402292842547,"Dutch Bros. Coffee, I 5;US 12, Chehalis, WA, United States of America"
700 Northwest Arkansas Way,Chehalis,WA,98532,Starbucks,46.676861400225235,-122.97944120000001,"Starbucks, Northwest Chamber of Commerce Way, Chehalis, WA, United States of America"
405 SE Everett Mall Way,Everett,WA,98208,Starbucks,47.90951349995918,-122.22541099999998,"Starbucks, Southeast Everett Mall Way, Everett, WA 98204, United States of America"
405 SE Everett Mall Way,Everett,WA,98208,Dutch Bros. Coffee,47.90723609995971,-122.232919,"Dutch Bros. Coffee, Southeast Everett Mall Way, Everett, WA 98204, United States of America"
5219  Tacoma Mall Boulevard,Tacoma,WA,98409,Starbucks,47.21609580011594,-122.46717400000001,"Starbucks, 4502 South Steele Street, Tacoma, WA 98409, United States of America"
4905 North Road 68,Pasco,WA,99301,Starbucks,46.27380680029797,-119.1854623,"Starbucks, 5204 North Road 68, Pasco, WA 99301, United States of America"
4905 North Road 68,Pasco,WA,99301,Black Rock Coffee,46.27031790029857,-119.18540507514378,"Black Rock Coffee, 7204 Burden Boulevard, Pasco, WA 99301, United States of America"
601 SW 41st St,Renton,WA,98057,Starbucks,47.44074995006687,-122.22213270007737,"Starbucks, 8825 South 43rd Street, Kent, WA 98032, United States of America"
601 SW 41st St,Renton,WA,98057,Condor Coffee,47.44153340006671,-122.22007149999999,"Condor Coffee, 200 East Valley Road, Renton, WA 98055, United States of America"
125 N 65th Ave,Ridgefield,WA,98642,Lava Java,45.81543610037016,-122.69017519999997,"Lava Java, Pioneer Street, Ridgefield, WA 98642, United States of America"
125 N 65th Ave,Ridgefield,WA,98642,Brewed Awakenings,45.81356170037042,-122.70071172216296,"Brewed Awakenings, South 3rd Way, Ridgefield, WA 98642, United States of America"
1829 Marketplace Dr,Burlington,WA,98233,Starbucks,48.45181679982804,-122.33707599999998,"Starbucks, 1839 South Burlington Boulevard, Burlington, WA 98233, United States of America"
1829 Marketplace Dr,Burlington,WA,98233,Woods Coffee,48.4527944998278,-122.3369213,"Woods Coffee, 1779 South Burlington Boulevard, Burlington, WA 98233, United States of America"
3625 148th St SW,Lynnwood,WA,98087,Starbucks,47.864416099969795,-122.28341179999998,"Starbucks, 148th Street Southwest, Snohomish County, WA 98026, United States of America"
3625 148th St SW,Lynnwood,WA,98087,Java Jitters,47.861463599970484,-122.28476229999997,"Java Jitters, 15030 Highway 99, Lynnwood, WA 98087, United States of America"
1603 E Yakima Ave,Yakima,WA,98901,Starbucks,46.60389020023901,-120.49772299999997,"Starbucks, East Yakima Avenue, Yakima, WA 98901, United States of America"
1603 E Yakima Ave,Yakima,WA,98901,Starbucks,46.586181100242314,-120.49801419999999,"Starbucks, East Nob Hill Boulevard, Yakima, WA 98901, United States of America"
120 W Chance a La Mer NW,Ocean Shores,WA,98569,Linda's Bakery Cafe,47.00933330015934,-124.1622146,"Linda's Bakery Cafe, 749 Point Brown Avenue Northeast, Ocean Shores, WA 98569, United States of America"
120 W Chance a La Mer NW,Ocean Shores,WA,98569,Beach Treasures,47.00698660015983,-124.1617171,"Beach Treasures, Point Brown Avenue Northeast, Ocean Shores, WA 98569, United States of America"
8967 W Airport Dr,Spokane,WA,99224,Starbucks,47.625537300025215,-117.53606299999997,"Starbucks, West Airport Drive, Spokane, WA 99219, United States of America"
8967 W Airport Dr,Spokane,WA,99224,Starbucks,47.62371290002564,-117.539218,"Starbucks, West Airport Drive, Spokane, WA 99219, United States of America"
15255 US Hwy 2,Leavenworth,WA,98826,Midway Grocery Cafe,47.818644399980556,-120.7089188,"Midway Grocery Cafe, Chiwawa Loop Road, Chelan County, WA, United States of America"
15255 US Hwy 2,Leavenworth,WA,98826,Leavenworth's Finest Espresso,47.59768740003157,-120.65812850000002,"Leavenworth's Finest Espresso, 1038 Front Street, Leavenworth, WA 98826, United States of America"
224 Bing Ave,George,WA,98848,Iron Horse Coffee,47.08069830014456,-119.86327339999998,"Iron Horse Coffee, South Frontage Road West, Grant County, WA 98824, United States of America"
224 Bing Ave,George,WA,98848,Espresso,47.08233960014421,-119.86115469999997,"Espresso, South Frontage Road West, Grant County, WA 98824, United States of America"
12221 120th Ave NE,Kirkland,WA,98034,Starbucks,47.70810290000626,-122.18379450000002,"Starbucks, 12221 120th Avenue Northeast, Kirkland, WA 98034, United States of America"
12221 120th Ave NE,Kirkland,WA,98034,Starbucks,47.71192375000537,-122.18702319968105,"Starbucks, 12425 116th Avenue Northeast, Kirkland, WA 98034, United States of America"
10600 Quil Ceda Blvd,Tulalip,WA,98271,Starbucks,48.09332339991534,-122.1886564,"Starbucks, 10600 Quil Ceda Boulevard, Tulalip Bay, WA 98271, United States of America"
10600 Quil Ceda Blvd,Tulalip,WA,98271,Espresso,48.09994679991374,-122.1881976,"Espresso, 116th Street Northeast, Kruse Junction, WA 98271, United States of America"
19615 Elderberry St SW,Rochester,WA,98579,Starbucks,46.801162900201206,-123.01293059999998,"Starbucks, 19725 Old Highway 99 Southwest, Rochester, WA 98579, United States of America"
19615 Elderberry St SW,Rochester,WA,98579,Starbucks,46.790082100203364,-123.01017870000001,"Starbucks, 20500 Old Highway 99 Southwest, Centralia, WA 98531, United States of America"
15347 Suquamish Way NE,Suquamish,WA,98392,Starbucks,47.73790009999935,-122.63702499999997,"Starbucks, Northeast Lincoln Road, Poulsbo, WA 98061, United States of America"
15347 Suquamish Way NE,Suquamish,WA,98392,Cups,47.73412490000023,-122.6463037,"Cups, 18881 Front Street Northeast, Poulsbo, WA 98061, United States of America"
17401 Southcenter Pkwy,Tukwila,WA,98188,Starbucks,47.44581140006575,-122.26017339999999,"Starbucks, 17480 Southcenter Parkway, Tukwila, WA 98188, United States of America"
17401 Southcenter Pkwy,Tukwila,WA,98188,Starbucks,47.45560870006357,-122.2565724,"Starbucks, 333 Strander Boulevard, Tukwila, WA 98188, United States of America"
4502 S Steele St,Tacoma,WA,98409,Starbucks,47.21609580011594,-122.46717400000001,"Starbucks, 4502 South Steele Street, Tacoma, WA 98409, United States of America"
4502 S Steele St,Tacoma,WA,98409,Starbucks,47.222914700114465,-122.47118299999998,"Starbucks, Fife Street, Tacoma, WA 98409, United States of America"
800 Fairview Ave N,Seattle,WA,98109,Cherry Street Coffee House,47.62327370002572,-122.33405239999998,"Cherry Street Coffee House, 500 Fairview Avenue North, Seattle, WA 98109, United States of America"
800 Fairview Ave N,Seattle,WA,98109,Top Pot Doughnuts,47.62405920002555,-122.33661599999998,"Top Pot Doughnuts, 590 Terry Avenue North, Seattle, WA 98109, United States of America"
720 228th Ave NE,Sammamish,WA,98074,Starbucks,47.61262475002816,-122.03503698136532,"Starbucks, 228th Avenue Southeast, Sammamish, WA 90874, United States of America"
720 228th Ave NE,Sammamish,WA,98074,Starbucks,47.64519470002071,-122.026476,"Starbucks, 3925 236th Avenue Northeast, Union Hill-Novelty Hill, WA 98074, United States of America"
